{"type": "FeatureCollection", "features": [ {"type": "Feature", "properties": {"norad_id": 37400, "name": "FENGYUN 1C DEB", "group": "fengyun-1c-debris", "lat": 52.77945262309219, "lon": -174.34067332074747, "alt_km": 799.6059739358889, "timestamp": "2025-12-27T09:28:56.765561+00:00", "meta": {"OBJECT_NAME": "FENGYUN 1C DEB", "OBJECT_ID": "1999-025EFS", "EPOCH": "2025-12-24T07:16:05.399328", "MEAN_MOTION": 13.63657773, "ECCENTRICITY": 0.04018246, "INCLINATION": 98.8375, "RA_OF_ASC_NODE": 194.6593, "ARG_OF_PERICENTER": 106.3688, "MEAN_ANOMALY": 258.2022, "EPHEMERIS_TYPE": 0, "CLASSIFICATION_TYPE": "U", "NORAD_CAT_ID": 37400, "ELEMENT_SET_NO": 999, "REV_AT_EPOCH": 80351, "BSTAR": 0.00039634008, "MEAN_MOTION_DOT": 5.07e-06, "MEAN_MOTION_DDOT": 0}, "tle": {"line1": "1 37400U 99025EFS 25358.30284027  .00000507  00000+0  39634-3 0  9997", "line2": "2 37400  98.8375 194.6593 0401824 106.3688 258.2022 13.63657773803510"}}, "geometry": {"type": "Point", "coordinates": [-174.34067332074747, 52.77945262309219]}}, {"type": "Feature", "properties": {"norad_id": 37404, "name": "FENGYUN 1C DEB", "group": "fengyun-1c-debris", "lat": 12.199895301624052, "lon": -174.30553364378343, "alt_km": 765.8731172381449, "timestamp": "2025-12-27T09:28:56.765572+00:00", "meta": {"OBJECT_NAME": "FENGYUN 1C DEB", "OBJECT_ID": "1999-025EFW", "EPOCH": "2025-12-22T06:21:11.904768", "MEAN_MOTION": 14.31671583, "ECCENTRICITY": 0.00448603, "INCLINATION": 98.4521, "RA_OF_ASC_NODE": 358.8573, "ARG_OF_PERICENTER": 134.3653, "MEAN_ANOMALY": 245.751, "EPHEMERIS_TYPE": 0, "CLASSIFICATION_TYPE": "U", "NORAD_CAT_ID": 37404, "ELEMENT_SET_NO": 999, "REV_AT_EPOCH": 82877, "BSTAR": 0.00061046451, "MEAN_MOTION_DOT": 1.603e-05, "MEAN_MOTION_DDOT": 0}, "tle": {"line1": "1 37404U 99025EFW 25356.26472112  .00001603  00000+0  61046-3 0  9998", "line2": "2 37404  98.4521 358.8573 0044860 134.3653 245.7510 14.31671583828770"}}, "geometry": {"type": "Point", "coordinates": [-174.30553364378343, 12.199895301624052]}}, {"type": "Feature", "properties": {"norad_id": 37406, "name": "FENGYUN 1C DEB", "group": "fengyun-1c-debris", "lat": 80.29588310407043, "lon": 172.23466251187142, "alt_km": 953.2063244122392, "timestamp": "2025-12-27T09:28:56.765582+00:00", "meta": {"OBJECT_NAME": "FENGYUN 1C DEB", "OBJECT_ID": "1999-025EFY", "EPOCH": "2025-12-22T21:25:18.983712", "MEAN_MOTION": 14.04322648, "ECCENTRICITY": 0.0149002, "INCLINATION": 98.4422, "RA_OF_ASC_NODE": 228.3273, "ARG_OF_PERICENTER": 237.6603, "MEAN_ANOMALY": 138.5268, "EPHEMERIS_TYPE": 0, "CLASSIFICATION_TYPE": "U", "NORAD_CAT_ID": 37406, "ELEMENT_SET_NO": 999, "REV_AT_EPOCH": 63375, "BSTAR": 0.00087973, "MEAN_MOTION_DOT": 1.504e-05, "MEAN_MOTION_DDOT": 0}, "tle": {"line1": "1 37406U 99025EFY 25356.89258083  .00001504  00000+0  87973-3 0  9995", "line2": "2 37406  98.4422 228.3273 0149002 237.6603 138.5268 14.04322648633752"}}, "geometry": {"type": "Point", "coordinates": [172.23466251187142, 80.29588310407043]}}, {"type": "Feature", "properties": {"norad_id": 37415, "name": "FENGYUN 1C DEB", "group": "fengyun-1c-debris", "lat": -31.37109789622372, "lon": -77.67001715223523, "alt_km": 981.5130129351264, "timestamp": "2025-12-27T09:28:56.765592+00:00", "meta": {"OBJECT_NAME": "FENGYUN 1C DEB", "OBJECT_ID": "1999-025EGH", "EPOCH": "2025-12-23T13:53:12.939072", "MEAN_MOTION": 13.5209761, "ECCENTRICITY": 0.02853312, "INCLINATION": 98.9814, "RA_OF_ASC_NODE": 104.4038, "ARG_OF_PERICENTER": 154.7014, "MEAN_ANOMALY": 206.8414, "EPHEMERIS_TYPE": 0, "CLASSIFICATION_TYPE": "U", "NORAD_CAT_ID": 37415, "ELEMENT_SET_NO": 999, "REV_AT_EPOCH": 62468, "BSTAR": 0.00032333843, "MEAN_MOTION_DOT": 2.38e-06, "MEAN_MOTION_DDOT": 0}, "tle": {"line1": "1 37415U 99025EGH 25357.57862198  .00000238  00000+0  32334-3 0  9993", "line2": "2 37415  98.9814 104.4038 0285331 154.7014 206.8414 13.52097610624680"}}, "geometry": {"type": "Point", "coordinates": [-77.67001715223523, -31.37109789622372]}}, {"type": "Feature", "properties": {"norad_id": 37417, "name": "FENGYUN 1C DEB", "group": "fengyun-1c-debris", "lat": 24.401232488690464, "lon": -10.22457824671059, "alt_km": 922.6906771262802, "timestamp": "2025-12-27T09:28:56.765602+00:00", "meta": {"OBJECT_NAME": "FENGYUN 1C DEB", "OBJECT_ID": "1999-025EGK", "EPOCH": "2025-12-23T18:20:46.512672", "MEAN_MOTION": 14.07401894, "ECCENTRICITY": 0.00785702, "INCLINATION": 98.7977, "RA_OF_ASC_NODE": 350.2692, "ARG_OF_PERICENTER": 229.3558, "MEAN_ANOMALY": 130.0762, "EPHEMERIS_TYPE": 0, "CLASSIFICATION_TYPE": "U", "NORAD_CAT_ID": 37417, "ELEMENT_SET_NO": 999, "REV_AT_EPOCH": 68505, "BSTAR": 0.00036509896, "MEAN_MOTION_DOT": 5.88e-06, "MEAN_MOTION_DDOT": 0}, "tle": {"line1": "1 37417U 99025EGK 25357.76442723  .00000588  00000+0  36510-3 0  9992", "line2": "2 37417  98.7977 350.2692 0078570 229.3558 130.0762 14.07401894685050"}}, "geometry": {"type": "Point", "coordinates": [-10.22457824671059, 24.401232488690464]}}, {"type": "Feature", "properties": {"norad_id": 37418, "name": "FENGYUN 1C DEB", "group": "fengyun-1c-debris", "lat": 10.712015643675965, "lon": 70.3188240418347, "alt_km": 2092.490130667792, "timestamp": "2025-12-27T09:28:56.765613+00:00", "meta": {"OBJECT_NAME": "FENGYUN 1C DEB", "OBJECT_ID": "1999-025EGL", "EPOCH": "2025-12-19T23:37:42.567744", "MEAN_MOTION": 11.95144251, "ECCENTRICITY": 0.10761283, "INCLINATION": 98.6118, "RA_OF_ASC_NODE": 243.7385, "ARG_OF_PERICENTER": 305.6539, "MEAN_ANOMALY": 44.8873, "EPHEMERIS_TYPE": 0, "CLASSIFICATION_TYPE": "U", "NORAD_CAT_ID": 37418, "ELEMENT_SET_NO": 999, "REV_AT_EPOCH": 49571, "BSTAR": -0.00092644522, "MEAN_MOTION_DOT": -4.14e-06, "MEAN_MOTION_DDOT": 0}, "tle": {"line1": "1 37418U 99025EGL 25353.98452046 -.00000414  00000+0 -92645-3 0  9993", "line2": "2 37418  98.6118 243.7385 1076128 305.6539  44.8873 11.95144251495719"}}, "geometry": {"type": "Point", "coordinates": [70.3188240418347, 10.712015643675965]}}, {"type": "Feature", "properties": {"norad_id": 37420, "name": "FENGYUN 1C DEB", "group": "fengyun-1c-debris", "lat": -39.23491239254075, "lon": 163.6043658887837, "alt_km": 851.2506906358021, "timestamp": "2025-12-27T09:28:56.765623+00:00", "meta": {"OBJECT_NAME": "FENGYUN 1C DEB", "OBJECT_ID": "1999-025EGN", "EPOCH": "2025-12-24T04:56:55.361184", "MEAN_MOTION": 13.99763331, "ECCENTRICITY": 0.00709676, "INCLINATION": 98.8645, "RA_OF_ASC_NODE": 347.8373, "ARG_OF_PERICENTER": 244.0926, "MEAN_ANOMALY": 115.2912, "EPHEMERIS_TYPE": 0, "CLASSIFICATION_TYPE": "U", "NORAD_CAT_ID": 37420, "ELEMENT_SET_NO": 999, "REV_AT_EPOCH": 59925, "BSTAR": 0.00034787038, "MEAN_MOTION_DOT": 4.78e-06, "MEAN_MOTION_DDOT": 0}, "tle": {"line1": "1 37420U 99025EGN 25358.20619631  .00000478  00000+0  34787-3 0  9992", "line2": "2 37420  98.8645 347.8373 0070967 244.0926 115.2912 13.99763331599255"}}, "geometry": {"type": "Point", "coordinates": [163.6043658887837, -39.23491239254075]}}, {"type": "Feature", "properties": {"norad_id": 37421, "name": "FENGYUN 1C DEB", "group": "fengyun-1c-debris", "lat": -45.79257618191474, "lon": -36.3519662997856, "alt_km": 1128.8101072586505, "timestamp": "2025-12-27T09:28:56.765633+00:00", "meta": {"OBJECT_NAME": "FENGYUN 1C DEB", "OBJECT_ID": "1999-025EGP", "EPOCH": "2025-12-22T15:04:15.674880", "MEAN_MOTION": 13.40544347, "ECCENTRICITY": 0.04094585, "INCLINATION": 98.8889, "RA_OF_ASC_NODE": 310.1905, "ARG_OF_PERICENTER": 60.6769, "MEAN_ANOMALY": 303.4625, "EPHEMERIS_TYPE": 0, "CLASSIFICATION_TYPE": "U", "NORAD_CAT_ID": 37421, "ELEMENT_SET_NO": 999, "REV_AT_EPOCH": 61078, "BSTAR": 0.00082017291, "MEAN_MOTION_DOT": 7.02e-06, "MEAN_MOTION_DDOT": 0}, "tle": {"line1": "1 37421U 99025EGP 25356.62795920  .00000702  00000+0  82017-3 0  9992", "line2": "2 37421  98.8889 310.1905 0409458  60.6769 303.4625 13.40544347610782"}}, "geometry": {"type": "Point", "coordinates": [-36.3519662997856, -45.79257618191474]}}, {"type": "Feature", "properties": {"norad_id": 37423, "name": "FENGYUN 1C DEB", "group": "fengyun-1c-debris", "lat": -60.768698211074, "lon": 67.27631337475135, "alt_km": 910.5434990830981, "timestamp": "2025-12-27T09:28:56.765643+00:00", "meta": {"OBJECT_NAME": "FENGYUN 1C DEB", "OBJECT_ID": "1999-025EGR", "EPOCH": "2025-12-19T20:56:31.693920", "MEAN_MOTION": 14.07571536, "ECCENTRICITY": 0.0049402, "INCLINATION": 98.7853, "RA_OF_ASC_NODE": 43.9189, "ARG_OF_PERICENTER": 140.2024, "MEAN_ANOMALY": 220.2786, "EPHEMERIS_TYPE": 0, "CLASSIFICATION_TYPE": "U", "NORAD_CAT_ID": 37423, "ELEMENT_SET_NO": 999, "REV_AT_EPOCH": 63710, "BSTAR": 0.00067171, "MEAN_MOTION_DOT": 1.103e-05, "MEAN_MOTION_DDOT": 0}, "tle": {"line1": "1 37423U 99025EGR 25353.87258905  .00001103  00000+0  67171-3 0  9995", "line2": "2 37423  98.7853  43.9189 0049402 140.2024 220.2786 14.07571536637100"}}, "geometry": {"type": "Point", "coordinates": [67.27631337475135, -60.768698211074]}}, {"type": "Feature", "properties": {"norad_id": 37424, "name": "FENGYUN 1C DEB", "group": "fengyun-1c-debris", "lat": -5.185636444834831, "lon": 127.79912439772336, "alt_km": 902.1120118707204, "timestamp": "2025-12-27T09:28:56.765653+00:00", "meta": {"OBJECT_NAME": "FENGYUN 1C DEB", "OBJECT_ID": "1999-025EGS", "EPOCH": "2025-12-27T02:43:59.003040", "MEAN_MOTION": 14.17933187, "ECCENTRICITY": 0.0214739, "INCLINATION": 97.1978, "RA_OF_ASC_NODE": 126.9136, "ARG_OF_PERICENTER": 239.333, "MEAN_ANOMALY": 118.6528, "EPHEMERIS_TYPE": 0, "CLASSIFICATION_TYPE": "U", "NORAD_CAT_ID": 37424, "ELEMENT_SET_NO": 999, "REV_AT_EPOCH": 68777, "BSTAR": 0.0015827, "MEAN_MOTION_DOT": 4.032e-05, "MEAN_MOTION_DDOT": 0}, "tle": {"line1": "1 37424U 99025EGS 25361.11387735  .00004032  00000+0  15827-2 0  9990", "line2": "2 37424  97.1978 126.9136 0214739 239.3330 118.6528 14.17933187687770"}}, "geometry": {"type": "Point", "coordinates": [127.79912439772336, -5.185636444834831]}}]}